OBJECT_NAME,OBJECT_ID,EPOCH,MEAN_MOTION,ECCENTRICITY,INCLINATION,RA_OF_ASC_NODE,ARG_OF_PERICENTER,MEAN_ANOMALY,EPHEMERIS_TYPE,CLASSIFICATION_TYPE,NORAD_CAT_ID,ELEMENT_SET_NO,REV_AT_EPOCH,BSTAR,MEAN_MOTION_DOT,MEAN_MOTION_DDOT
GSAT0216 (GALILEO 20),2017-079B,2026-07-12T12:42:45.183168,1.70474457,.0004867,55.0685,220.8089,277.1742,82.8485,0,U,43056,999,5343,0,.83E-6,0
GSAT0217 (GALILEO 21),2017-079C,2026-07-11T13:51:21.849408,1.70473980,.00044742,55.0671,220.8331,291.1332,68.8993,0,U,43057,999,5340,0,.88E-6,0
GSAT0218 (GALILEO 22),2017-079D,2026-07-11T19:08:16.366560,1.70474392,.0005348,55.0670,220.8245,274.4620,85.5568,0,U,43058,999,5343,0,.87E-6,0
BEIDOU-3 M7 (C27),2018-003A,2026-07-13T02:59:29.125824,1.86228142,.0004477,54.3033,301.4109,98.5255,261.5490,0,U,43107,999,5783,0,-.66E-6,0
BEIDOU-3 M8 (C28),2018-003B,2026-07-11T23:52:56.603712,1.86231048,.00030625,54.2974,301.4318,258.3591,101.6272,0,U,43108,999,5782,0,-.67E-6,0
BEIDOU-3 M4 (C22),2018-018A,2026-07-12T23:24:21.446208,1.86230757,.0007449,56.6736,62.2990,28.5891,331.5234,0,U,43207,999,5722,0,-.39E-6,0
BEIDOU-3 M3 (C21),2018-018B,2026-07-11T23:13:40.295136,1.86230755,.0007638,56.6719,62.3360,347.3210,12.7279,0,U,43208,999,5720,0,-.42E-6,0
BEIDOU-3 M9 (C29),2018-029A,2026-07-12T17:20:45.640608,1.86228119,.0001274,54.1691,299.0556,187.8327,172.1919,0,U,43245,999,5637,0,-.62E-6,0
BEIDOU-3 M10 (C30),2018-029B,2026-07-12T15:46:02.731584,1.86229204,.0003284,54.1671,299.0846,37.0066,323.0423,0,U,43246,999,5635,0,-.62E-6,0
IRNSS-1I,2018-035A,2026-07-06T20:05:50.528832,1.00279237,.00180874,28.7973,73.8917,180.4002,27.0525,0,U,43286,999,3027,0,.79E-6,0
COSMOS 2527 (756),2018-053A,2026-07-11T22:56:03.033888,2.13102167,.00065681,65.5909,73.0818,230.8626,129.1456,0,U,43508,999,6280,0,-.17E-6,0
BEIDOU-2 IGSO-7 (C16),2018-057A,2026-07-01T21:23:21.693984,1.00246939,.01049468,55.1981,162.9292,237.8611,308.6338,0,U,43539,999,2927,0,-.33E-6,0
GSAT0221 (GALILEO 25),2018-060A,2026-07-12T06:54:47.939040,1.70476026,.0002645,57.1607,341.1034,286.5548,73.4055,0,U,43564,999,4959,0,-.89E-6,0
GSAT0222 (GALILEO 26),2018-060B,2026-07-11T22:06:28.605024,1.70475789,.000273,57.1642,341.1170,235.5377,124.4270,0,U,43565,999,4963,0,-.87E-6,0
GSAT0219 (GALILEO 23),2018-060C,2026-07-12T03:24:30.782880,1.70476011,.00017989,57.1635,341.1125,300.6290,59.3431,0,U,43566,999,4961,0,-.88E-6,0
GSAT0220 (GALILEO 24),2018-060D,2026-07-10T14:28:43.498272,1.70475685,.00021178,57.1637,341.1546,293.2596,66.7130,0,U,43567,999,4957,0,-.81E-6,0
BEIDOU-3 M5 (C23),2018-062A,2026-07-12T08:15:17.978112,1.86228464,.00056966,54.0867,181.4489,292.2984,67.6347,0,U,43581,999,5410,0,.77E-6,0
BEIDOU-3 M6 (C24),2018-062B,2026-07-12T04:58:51.908736,1.86227603,.0005154,54.0860,181.4429,9.5773,350.4271,0,U,43582,999,5410,0,.79E-6,0
BEIDOU-3 M12 (C26),2018-067A,2026-07-11T14:36:59.746176,1.86227688,.00079168,54.1816,180.2122,30.3589,329.6835,0,U,43602,999,5357,0,.88E-6,0
BEIDOU-3 M11 (C25),2018-067B,2026-07-12T06:44:47.960160,1.86227116,.0004603,54.1790,180.1532,13.4814,346.5223,0,U,43603,999,5361,0,.76E-6,0
BEIDOU-3 M13 (C32),2018-072A,2026-07-12T05:39:35.961696,1.86231235,.00062531,56.6459,61.8341,333.6347,26.4027,0,U,43622,999,5312,0,-.41E-6,0
BEIDOU-3 M14 (C33),2018-072B,2026-07-12T02:25:48.855360,1.86231363,.0005521,56.6480,61.8327,11.3250,348.7562,0,U,43623,999,5311,0,-.42E-6,0
BEIDOU-3 M16 (C35),2018-078A,2026-07-12T19:02:10.397760,1.86232176,.0006658,54.0650,299.0879,39.9488,320.1267,0,U,43647,999,5263,0,-.62E-6,0
BEIDOU-3 M15 (C34),2018-078B,2026-07-12T22:08:19.108032,1.86232309,.0003566,54.0606,299.0835,57.9355,302.1263,0,U,43648,999,5265,0,-.62E-6,0
BEIDOU-3 G1 (C59),2018-085A,2026-07-13T03:57:38.691360,1.00272580,.0008051,2.9306,96.6748,355.9349,57.8024,0,U,43683,999,2832,0,-.114E-5,0
COSMOS 2529 (757),2018-086A,2026-07-11T02:43:12.569952,2.13101972,.00121111,64.2969,191.7864,256.4030,103.4921,0,U,43687,999,5979,0,.113E-5,0
BEIDOU-3 M17 (C36),2018-093A,2026-07-12T23:57:19.084320,1.86228247,.0010123,54.1701,181.4207,293.9831,8.1660,0,U,43706,999,5201,0,.66E-6,0
BEIDOU-3 M18 (C37),2018-093B,2026-07-11T20:58:35.025600,1.86226285,.00080339,54.1711,181.4513,322.2876,37.6531,0,U,43707,999,5199,0,.85E-6,0
GPS BIII-1  (PRN 04),2018-109A,2026-07-12T04:33:30.420288,2.00562582,.0038524,55.6965,91.2004,197.2608,339.6266,0,U,43873,999,5557,0,-.35E-6,0
BEIDOU-3 IGSO-1 (C38),2019-023A,2026-07-12T11:43:39.425664,1.00283752,.00256738,58.7307,37.3896,224.1023,323.8830,0,U,44204,999,746,0,-.205E-5,0
BEIDOU-2 G8 (C01),2019-027A,2026-07-13T03:53:07.067904,1.00272288,.0009748,1.7204,74.4975,282.3365,137.0092,0,U,44231,999,2634,0,-.251E-5,0
